start=new Date('2022-02-25T00:00:00.000Z').valueOf();
sats=[{"COUNTRY_CODE":"US","OBJECT_TYPE":"PAYLOAD","APOAPSIS":"548.625","OBJECT_NAME":"STARLINK-1060","DECAY_DATE":null,"SEMIMAJOR_AXIS":"6925.392","PERIOD":"95.593","SITE":"AFETR","FILE":"3319390","PERIAPSIS":"545.889","BSTAR":"-0.00001725000000","CLASSIFICATION_TYPE":"U","CENTER_NAME":"EARTH","TIME_SYSTEM":"UTC","REV_AT_EPOCH":"12649","MEAN_MOTION_DDOT":"0.0000000000000","TLE_LINE2":"2 44765  53.0554 342.9470 0001975  64.0029 296.1163 15.06385884126490","OBJECT_ID":"2019-074BE","REF_FRAME":"TEME","ARG_OF_PERICENTER":"64.0029","EPOCH":"2022-02-24T20:19:49.939392","MEAN_MOTION_DOT":"-0.00000539","EPHEMERIS_TYPE":"0","TLE_LINE1":"1 44765U 19074BE  22055.84710578 -.00000539  00000-0 -17250-4 0  9999","RCS_SIZE":"LARGE","MEAN_MOTION":"15.06385884","GP_ID":"196860988","ELEMENT_SET_NO":"999","INCLINATION":"53.0554","NORAD_CAT_ID":"44765","LAUNCH_DATE":"2019-11-11","MEAN_ELEMENT_THEORY":"SGP4","ECCENTRICITY":"0.00019750","RA_OF_ASC_NODE":"342.9470","MEAN_ANOMALY":"296.1163"},{"BSTAR":"0.00026264000000","CLASSIFICATION_TYPE":"U","CENTER_NAME":"EARTH","PERIOD":"95.592","SITE":"AFETR","FILE":"3320325","PERIAPSIS":"546.106","OBJECT_NAME":"STARLINK-1061","DECAY_DATE":null,"SEMIMAJOR_AXIS":"6925.365","COUNTRY_CODE":"US","APOAPSIS":"548.354","OBJECT_TYPE":"PAYLOAD","ECCENTRICITY":"0.00016230","RA_OF_ASC_NODE":"4.1476","MEAN_ANOMALY":"285.1017","NORAD_CAT_ID":"44766","INCLINATION":"53.0560","ELEMENT_SET_NO":"999","LAUNCH_DATE":"2019-11-11","MEAN_ELEMENT_THEORY":"SGP4","TLE_LINE1":"1 44766U 19074BF  22055.57987619  .00003632  00000-0  26264-3 0  9991","MEAN_MOTION":"15.06394571","RCS_SIZE":"LARGE","EPHEMERIS_TYPE":"0","GP_ID":"196900131","REV_AT_EPOCH":"12601","TIME_SYSTEM":"UTC","REF_FRAME":"TEME","TLE_LINE2":"2 44766  53.0560   4.1476 0001623  75.0152 285.1017 15.06394571126017","MEAN_MOTION_DDOT":"0.0000000000000","ARG_OF_PERICENTER":"75.0152","OBJECT_ID":"2019-074BF","MEAN_MOTION_DOT":"0.00003632","EPOCH":"2022-02-24T13:55:01.302816"},{"SEMIMAJOR_AXIS":"6925.360","DECAY_DATE":null,"OBJECT_NAME":"STARLINK-1062","OBJECT_TYPE":"PAYLOAD","APOAPSIS":"548.356","COUNTRY_CODE":"US","CENTER_NAME":"EARTH","CLASSIFICATION_TYPE":"U","BSTAR":"0.00010117000000","FILE":"3320325","PERIAPSIS":"546.095","SITE":"AFETR","PERIOD":"95.592","GP_ID":"196899882","EPHEMERIS_TYPE":"0","RCS_SIZE":"LARGE","TLE_LINE1":"1 44767U 19074BG  22055.83788775  .00001226  00000-0  10117-3 0  9990","MEAN_MOTION":"15.06396106","EPOCH":"2022-02-24T20:06:33.501600","MEAN_MOTION_DOT":"0.00001226","MEAN_MOTION_DDOT":"0.0000000000000","TLE_LINE2":"2 44767  53.0558   2.9864 0001632  54.4402 305.6739 15.06396106126050","ARG_OF_PERICENTER":"54.4402","REF_FRAME":"TEME","OBJECT_ID":"2019-074BG","TIME_SYSTEM":"UTC","REV_AT_EPOCH":"12605","MEAN_ANOMALY":"305.6739","RA_OF_ASC_NODE":"2.9864","ECCENTRICITY":"0.00016320","MEAN_ELEMENT_THEORY":"SGP4","LAUNCH_DATE":"2019-11-11","ELEMENT_SET_NO":"999","INCLINATION":"53.0558","NORAD_CAT_ID":"44767"},{"TLE_LINE2":"2 44768  53.0558   5.5709 0001601  56.1695 303.9446 15.06395925125971","MEAN_MOTION_DDOT":"0.0000000000000","REF_FRAME":"TEME","OBJECT_ID":"2019-074BH","ARG_OF_PERICENTER":"56.1695","REV_AT_EPOCH":"12597","TIME_SYSTEM":"UTC","MEAN_MOTION_DOT":"0.00003967","EPOCH":"2022-02-24T06:18:33.219072","GP_ID":"196838444","RCS_SIZE":"LARGE","TLE_LINE1":"1 44768U 19074BH  22055.26288448  .00003967  00000-0  28509-3 0  9998","MEAN_MOTION":"15.06395925","EPHEMERIS_TYPE":"0","LAUNCH_DATE":"2019-11-11","INCLINATION":"53.0558","NORAD_CAT_ID":"44768","ELEMENT_SET_NO":"999","MEAN_ELEMENT_THEORY":"SGP4","RA_OF_ASC_NODE":"5.5709","ECCENTRICITY":"0.00016010","MEAN_ANOMALY":"303.9446","COUNTRY_CODE":"US","APOAPSIS":"548.335","OBJECT_TYPE":"PAYLOAD","OBJECT_NAME":"STARLINK-1063","SEMIMAJOR_AXIS":"6925.361","DECAY_DATE":null,"SITE":"AFETR","PERIOD":"95.592","PERIAPSIS":"546.117","FILE":"3318573","BSTAR":"0.00028509000000","CENTER_NAME":"EARTH","CLASSIFICATION_TYPE":"U"},{"GP_ID":"196899380","MEAN_MOTION":"15.11038112","TLE_LINE1":"1 44770U 19074BK  22055.85622411  .00011773  00000-0  71241-3 0  9993","RCS_SIZE":"LARGE","EPHEMERIS_TYPE":"0","MEAN_MOTION_DOT":"0.00011773","EPOCH":"2022-02-24T20:32:57.763104","MEAN_MOTION_DDOT":"0.0000000000000","TLE_LINE2":"2 44770  53.0032 353.7133 0002705  97.2478 262.8820 15.11038112126159","REF_FRAME":"TEME","OBJECT_ID":"2019-074BK","ARG_OF_PERICENTER":"97.2478","REV_AT_EPOCH":"12615","TIME_SYSTEM":"UTC","MEAN_ANOMALY":"262.8820","RA_OF_ASC_NODE":"353.7133","ECCENTRICITY":"0.00027050","MEAN_ELEMENT_THEORY":"SGP4","LAUNCH_DATE":"2019-11-11","INCLINATION":"53.0032","NORAD_CAT_ID":"44770","ELEMENT_SET_NO":"999","SEMIMAJOR_AXIS":"6911.170","DECAY_DATE":null,"OBJECT_NAME":"STARLINK-1065","APOAPSIS":"534.904","OBJECT_TYPE":"PAYLOAD","COUNTRY_CODE":"US","CLASSIFICATION_TYPE":"U","CENTER_NAME":"EARTH","BSTAR":"0.00071241000000","PERIAPSIS":"531.165","FILE":"3320325","SITE":"AFETR","PERIOD":"95.299"},{"FILE":"3320325","PERIAPSIS":"545.951","PERIOD":"95.592","SITE":"AFETR","CLASSIFICATION_TYPE":"U","CENTER_NAME":"EARTH","BSTAR":"0.00005357600000","APOAPSIS":"548.470","OBJECT_TYPE":"PAYLOAD","COUNTRY_CODE":"US","DECAY_DATE":null,"SEMIMAJOR_AXIS":"6925.345","OBJECT_NAME":"STARLINK-1067","MEAN_ELEMENT_THEORY":"SGP4","NORAD_CAT_ID":"44771","INCLINATION":"53.0557","ELEMENT_SET_NO":"999","LAUNCH_DATE":"2019-11-11","MEAN_ANOMALY":"308.5042","ECCENTRICITY":"0.00018190","RA_OF_ASC_NODE":"3.8369","MEAN_MOTION_DOT":"0.00000516","EPOCH":"2022-02-24T15:35:50.877888","REV_AT_EPOCH":"12602","TIME_SYSTEM":"UTC","MEAN_MOTION_DDOT":"0.0000000000000","TLE_LINE2":"2 44771  53.0557   3.8369 0001819  51.6111 308.5042 15.06401004126027","OBJECT_ID":"2019-074BL","ARG_OF_PERICENTER":"51.6111","REF_FRAME":"TEME","TLE_LINE1":"1 44771U 19074BL  22055.64989442  .00000516  00000-0  53576-4 0  9996","RCS_SIZE":"LARGE","MEAN_MOTION":"15.06401004","EPHEMERIS_TYPE":"0","GP_ID":"196899632"},{"MEAN_MOTION_DOT":"-0.00000316","EPOCH":"2022-02-24T21:44:45.845952","MEAN_MOTION_DDOT":"0.0000000000000","TLE_LINE2":"2 44772  53.0564 342.6967 0001636  66.4605 293.6555 15.06384329126330","REF_FRAME":"TEME","OBJECT_ID":"2019-074BM","ARG_OF_PERICENTER":"66.4605","REV_AT_EPOCH":"12633","TIME_SYSTEM":"UTC","GP_ID":"196900382","MEAN_MOTION":"15.06384329","TLE_LINE1":"1 44772U 19074BM  22055.90608618 -.00000316  00000-0 -22848-5 0  9998","RCS_SIZE":"LARGE","EPHEMERIS_TYPE":"0","MEAN_ELEMENT_THEORY":"SGP4","LAUNCH_DATE":"2019-11-11","NORAD_CAT_ID":"44772","INCLINATION":"53.0564","ELEMENT_SET_NO":"999","MEAN_ANOMALY":"293.6555","RA_OF_ASC_NODE":"342.6967","ECCENTRICITY":"0.00016360","APOAPSIS":"548.395","OBJECT_TYPE":"PAYLOAD","COUNTRY_CODE":"US","SEMIMAJOR_AXIS":"6925.397","DECAY_DATE":null,"OBJECT_NAME":"STARLINK-1068","PERIAPSIS":"546.129","FILE":"3320325","SITE":"AFETR","PERIOD":"95.593","CLASSIFICATION_TYPE":"U","CENTER_NAME":"EARTH","BSTAR":"-0.00000228480000"},{"MEAN_ANOMALY":"292.7369","ECCENTRICITY":"0.00013700","RA_OF_ASC_NODE":"124.6976","MEAN_ELEMENT_THEORY":"SGP4","ELEMENT_SET_NO":"999","NORAD_CAT_ID":"44914","INCLINATION":"53.0525","LAUNCH_DATE":"2020-01-07","EPHEMERIS_TYPE":"0","TLE_LINE1":"1 44914U 20001A   22055.45822804  .00001128  00000-0  94600-4 0  9997","MEAN_MOTION":"15.06399138","RCS_SIZE":"LARGE","GP_ID":"196838959","EPOCH":"2022-02-24T10:59:50.902656","MEAN_MOTION_DOT":"0.00001128","TIME_SYSTEM":"UTC","REV_AT_EPOCH":"11764","REF_FRAME":"TEME","TLE_LINE2":"2 44914  53.0525 124.6976 0001370  67.3765 292.7369 15.06399138117646","MEAN_MOTION_DDOT":"0.0000000000000","OBJECT_ID":"2020-001A","ARG_OF_PERICENTER":"67.3765","CLASSIFICATION_TYPE":"U","CENTER_NAME":"EARTH","BSTAR":"0.00009460000000","FILE":"3318573","PERIAPSIS":"546.267","PERIOD":"95.592","SITE":"AFETR","DECAY_DATE":null,"SEMIMAJOR_AXIS":"6925.351","OBJECT_NAME":"STARLINK-1073","OBJECT_TYPE":"PAYLOAD","APOAPSIS":"548.165","COUNTRY_CODE":"US"},{"BSTAR":"0.00016469000000","CLASSIFICATION_TYPE":"U","CENTER_NAME":"EARTH","SITE":"AFETR","PERIOD":"95.593","FILE":"3318573","PERIAPSIS":"546.191","OBJECT_NAME":"STARLINK-1084","SEMIMAJOR_AXIS":"6925.374","DECAY_DATE":null,"COUNTRY_CODE":"US","APOAPSIS":"548.287","OBJECT_TYPE":"PAYLOAD","RA_OF_ASC_NODE":"124.5599","ECCENTRICITY":"0.00015130","MEAN_ANOMALY":"283.1989","LAUNCH_DATE":"2020-01-07","INCLINATION":"53.0520","NORAD_CAT_ID":"44915","ELEMENT_SET_NO":"999","MEAN_ELEMENT_THEORY":"SGP4","GP_ID":"196839711","RCS_SIZE":"LARGE","TLE_LINE1":"1 44915U 20001B   22055.48772967  .00002172  00000-0  16469-3 0  9991","MEAN_MOTION":"15.06391780","EPHEMERIS_TYPE":"0","TLE_LINE2":"2 44915  53.0520 124.5599 0001513  76.9168 283.1989 15.06391780117652","REF_FRAME":"TEME","MEAN_MOTION_DDOT":"0.0000000000000","OBJECT_ID":"2020-001B","ARG_OF_PERICENTER":"76.9168","REV_AT_EPOCH":"11765","TIME_SYSTEM":"UTC","MEAN_MOTION_DOT":"0.00002172","EPOCH":"2022-02-24T11:42:19.843488"},{"BSTAR":"0.00003766900000","CLASSIFICATION_TYPE":"U","CENTER_NAME":"EARTH","PERIOD":"95.593","SITE":"AFETR","PERIAPSIS":"546.204","FILE":"3320325","OBJECT_NAME":"STARLINK-1098","DECAY_DATE":null,"SEMIMAJOR_AXIS":"6925.406","COUNTRY_CODE":"US","OBJECT_TYPE":"PAYLOAD","APOAPSIS":"548.338","ECCENTRICITY":"0.00015410","RA_OF_ASC_NODE":"123.6597","MEAN_ANOMALY":"305.5461","ELEMENT_SET_NO":"999","INCLINATION":"53.0537","NORAD_CAT_ID":"44917","LAUNCH_DATE":"2020-01-07","MEAN_ELEMENT_THEORY":"SGP4","EPHEMERIS_TYPE":"0","TLE_LINE1":"1 44917U 20001D   22055.69045728  .00000279  00000-0  37669-4 0  9996","MEAN_MOTION":"15.06381198","RCS_SIZE":"LARGE","GP_ID":"196900146","TIME_SYSTEM":"UTC","REV_AT_EPOCH":"11768","TLE_LINE2":"2 44917  53.0537 123.6597 0001541  54.5672 305.5461 15.06381198117682","OBJECT_ID":"2020-001D","MEAN_MOTION_DDOT":"0.0000000000000","ARG_OF_PERICENTER":"54.5672","REF_FRAME":"TEME","EPOCH":"2022-02-24T16:34:15.508992","MEAN_MOTION_DOT":"0.00000279"}];
